LEMUR-1                 
1 40044U 14033AL  26113.92143809  .00001529  00000+0  18222-3 0  9996
2 40044  97.7806 264.9627 0047177 255.6984 103.8990 14.85001384637417
LEMUR-2-GREENBERG       
1 42837U 17042N   26113.49242242  .00012554  00000+0  43976-3 0  9998
2 42837  97.3814 294.4470 0009177 190.4042 169.7010 15.29580288480028
LEMUR-2-ANDIS           
1 42838U 17042P   26113.44223354  .00015768  00000+0  50262-3 0  9993
2 42838  97.3684 294.4102 0009254 193.6261 166.4732 15.32577260480069
LEMUR-2-MONSON          
1 42839U 17042Q   26113.05814709  .00011945  00000+0  46054-3 0  9998
2 42839  97.4069 294.0652 0007100 178.5148 181.6113 15.26447427479758
LEMUR-2-FURIAUS         
1 42840U 17042R   26113.05252910  .00016101  00000+0  58567-3 0  9991
2 42840  97.3770 292.0941 0006776 251.2684 108.7820 15.28305382479782
LEMUR-2-PETERG          
1 42841U 17042S   26112.93434248  .00017404  00000+0  57074-3 0  9993
2 42841  97.4000 297.9742 0004618 163.9126 196.2263 15.31673810479978
LEMUR-2-DEMBITZ         
1 42842U 17042T   26113.92799922  .00012225  00000+0  44177-3 0  9993
2 42842  97.3831 295.9339 0006787 199.2591 160.8394 15.28586525480052
LEMUR-2-ZACHARY         
1 42845U 17042W   26113.50002123  .00032229  00000+0  66665-3 0  9992
2 42845  97.3648 304.1549 0004024 197.0757 163.0357 15.45731163480748
LEMUR-2-KADI            
1 43184U 18014E   26113.23717081  .00148792  00000+0  97132-3 0  9991
2 43184  97.4568  40.8373 0007040  98.5112 261.6951 15.75393216452376
LEMUR-2-AMANDA-SVANTE   
1 48269U 21034B   26113.18816930  .00020295  00000+0  67740-3 0  9992
2 48269  97.5772 190.1629 0004253 104.3037 255.8676 15.31077104272636
LEMUR-2-SPECIAL-K       
1 48273U 21034F   26113.48449054  .00069935  00000+0  11392-2 0  9994
2 48273  97.5657 196.9601 0002625 162.0771 198.0574 15.52399226273174
LEMUR-2-EMBRIONOVIS     
1 56970U 23084AQ  26113.63878807  .00011362  00000+0  32490-3 0  9997
2 56970  97.6216 255.8302 0010039 144.1903 216.0015 15.36100849159300
LEMUR-2-MANO            
1 57390U 23100E   26113.03319192  .00245901  00000+0  14243-2 0  9997
2 57390  99.4436 150.9022 0013747 172.2671 187.8803 15.77747785153437
LEMUR-2-DEVERILL-M-T    
1 57391U 23100F   26113.01285655  .00017937  00000+0  49642-3 0  9990
2 57391  99.4531 135.9718 0006440 212.2688 147.8157 15.37085426152760
LEMUR-2-BASS            
1 58259U 23174D   26113.51173285  .00012747  00000+0  30756-3 0  9995
2 58259  97.3842 197.5387 0006770  19.1833 340.9667 15.41321854136930
LEMUR-2-JK0903EM1407    
1 58336U 23174CJ  26112.50316843  .00015961  00000+0  29725-3 0  9993
2 58336  97.3891 201.5458 0003763 311.5374  48.5554 15.48923702137106
LEMUR-2-MJR092620       
1 58340U 23174CN  26113.00345686  .00008487  00000+0  19303-3 0  9997
2 58340  97.3955 202.1024 0005297 327.1147  32.9771 15.43228349137134
LEMUR-2-NIMBUS2000      
1 58899U 24022A   26113.01068671  .00011255  00000+0  30039-3 0  9992
2 58899  97.4175 322.3754 0007888 323.7164  36.3545 15.38262041123786
LEMUR-2-VALHALLA        
1 58900U 24022B   26113.06198549  .00011151  00000+0  30002-3 0  9993
2 58900  97.4174 322.4428 0008323 317.9777  42.0828 15.38011073123793
LEMUR-2-OBA-NI-JESU     
1 58902U 24022D   26113.44662704  .00135175  00000+0  82783-3 0  9992
2 58902  97.3950 334.1533 0003160 218.5988 141.5052 15.76921425124627
LEMUR-2-CAEL            
1 58903U 24022E   26113.50616364  .00012118  00000+0  31351-3 0  9997
2 58903  97.4159 323.7361 0006380 296.6377  63.4215 15.39212268123921
LEMUR-2-JOHNNYTRUONG    
1 59146U 24043BA  26113.31492291  .00028676  00000+0  40542-3 0  9998
2 59146  97.5333 261.8103 0003981  32.5900 327.5599 15.56494735119491
LEMUR-2-TOMATOKECHUP    
1 60471U 24149D   26113.49494588  .00008531  00000+0  25454-3 0  9991
2 60471  97.3796 195.4514 0003272  88.1334 272.0284 15.34879452 93770
LEMUR-2-STELLA          
1 60533U 24149BT  26113.65319262  .00008564  00000+0  52231-3 0  9992
2 60533  97.6725 195.9237 0001406 136.8013 223.3327 15.10587955 92261
LEMUR-2-MARHISYAM       
1 60536U 24149BW  26112.22319617  .00008694  00000+0  53774-3 0  9998
2 60536  97.6874 194.8794 0000762   2.2878 357.8355 15.10076058 92030
LEMUR-2-AHMED-ASRAR     
1 60576U 24149DN  26113.50069011  .00008423  00000+0  50180-3 0  9992
2 60576  97.6994 198.0497 0002851 156.5186 203.6174 15.11448709 92303
LEMUR-2-LLOYD           
1 60577U 24149DP  26113.45713161  .00006562  00000+0  42874-3 0  9992
2 60577  97.6738 194.6043 0002945 355.6151   4.5051 15.08155763 92142
LEMUR-2-SQUIRRELCOMM    
1 60578U 24149DQ  26113.46994137  .00003735  00000+0  25711-3 0  9998
2 60578  97.6710 194.5819 0004520 222.4285 137.6593 15.06495142 92160
LEMUR-2-SIERRINI        
1 60579U 24149DR  26113.49416677  .00008173  00000+0  50981-3 0  9998
2 60579  97.6836 195.8976 0004941  23.3838 336.7615 15.09776550 92207
LEMUR-2-WILSON          
1 62694U 25009CP  26113.48064394  .00001655  00000+0  15692-3 0  9996
2 62694  97.7032 192.9140 0002770 193.1981 166.9168 14.94916646 69182
LEMUR-2-STAR-FOX        
1 62696U 25009CR  26113.46743922  .00004701  00000+0  36619-3 0  9994
2 62696  97.6927 195.5318 0001679  90.3151 269.8266 15.01696195 69349
LEMUR-2-ARIANNA         
1 62699U 25009CU  26113.19745026  .00004739  00000+0  37011-3 0  9992
2 62699  97.6854 195.0864 0001534  63.9985 296.1397 15.01592863 69304
LEMUR-2-ALISIA          
1 62706U 25009DB  26113.65289851  .00006201  00000+0  47904-3 0  9999
2 62706  97.6905 196.2257 0003413  53.4024 306.7514 15.01883695 91978
LEMUR-2-ROUNDTRIPPER    
1 62711U 25009DG  26112.98160621  .00006965  00000+0  52350-3 0  9991
2 62711  97.7222 195.7817 0003101 331.9436  28.1622 15.02887057 69335
LEMUR-2-MYNAMEISJEFF    
1 62712U 25009DH  26113.51269787  .00006783  00000+0  50989-3 0  9999
2 62712  97.7276 196.6588 0002287  23.5164 336.6165 15.02892785 69418
LEMUR-2-LEIA-PHILIP     
1 63246U 25052AN  26113.66894860  .00003107  00000+0  27385-3 0  9993
2 63246  97.6900   6.5275 0005568  61.5484 298.6299 14.97158625 60516
LEMUR-2-LIA-MARTIN      
1 63248U 25052AQ  26113.48499588  .00003005  00000+0  26415-3 0  9993
2 63248  97.6941   6.7541 0003897  31.5981 328.5474 14.97297801 60498
LEMUR-2-DELOITTE-1      
1 63259U 25052BB  26113.65631468  .00003567  00000+0  31335-3 0  9999
2 63259  97.6980   7.2454 0001030  59.4402 300.6921 14.97198596 60530
LEMUR-2-EMERSONROSE     
1 63261U 25052BD  26112.95078097  .00002414  00000+0  20589-3 0  9996
2 63261  97.6948   6.9990 0000320 225.2944 134.8253 14.98663164 60469
LEMUR-2-MARACHE-FRAN    
1 63262U 25052BE  26112.95928750  .00004008  00000+0  33154-3 0  9990
2 63262  97.6923   7.2484 0002398 204.0619 156.0492 14.99468238 60485
LEMUR-2-THEFALCONER     
1 63264U 25052BG  26113.67517650  .00002610  00000+0  23181-3 0  9991
2 63264  97.6921   6.9427 0002322 136.7172 223.4233 14.96999896 60534
LEMUR-2-UNTITLED-SC     
1 63351U 25061A   26113.93343105  .00003160  00000+0  18147-3 0  9996
2 63351  97.5609  89.7199 0020802  92.1372 268.2241 15.13074795 59387
LEMUR-2-ESPERANZA       
1 63352U 25061B   26113.64932691  .00002590  00000+0  14913-3 0  9992
2 63352  97.5618  89.5193 0020437  92.3957 267.9615 15.13160680 59341
LEMUR-2-KREMPEL-BRO2    
1 63353U 25061C   26113.42734717  .00003034  00000+0  17194-3 0  9996
2 63353  97.5665  89.7627 0021341  86.2785 274.0886 15.13581298 59323
LEMUR-2-THERMORAPTOR    
1 63354U 25061D   26113.67652082  .00003347  00000+0  18893-3 0  9992
2 63354  97.5669  90.0758 0021080  84.7061 275.6575 15.13652080 59362
LEMUR-2-NEUROSPICY      
1 63355U 25061E   26113.65227283  .00002864  00000+0  16185-3 0  9997
2 63355  97.5596  89.7204 0018936  88.0672 272.2728 15.13766633 59367
LEMUR-2-TILLINFINITY    
1 63356U 25061F   26113.64261745  .00002778  00000+0  15448-3 0  9993
2 63356  97.5582  89.9632 0020124  77.4600 282.8881 15.14348316 59389
LEMUR-2-KREMPEL-BRO1    
1 63357U 25061G   26113.67522347  .00003367  00000+0  18738-3 0  9995
2 63357  97.5584  89.9265 0020731  78.3778 281.9779 15.14163896 59388
LEMUR-2-LANGER2SPACE    
1 63358U 25061H   26113.49257470  .00003022  00000+0  17015-3 0  9993
2 63358  97.5589  89.5812 0018800  87.0490 273.2892 15.13860802 59346
LEMUR-2-BALTO           
1 63395U 25052BH  26113.47823183  .00003339  00000+0  27670-3 0  9991
2 63395  97.6946   7.7576 0000992 173.5710 186.5526 14.99517791 60568
LEMUR-2-KRISH           
1 64561U 25135AK  26113.55980348  .00003070  00000+0  28115-3 0  9992
2 64561  97.7671 228.8588 0001249 101.9099 258.2262 14.95682007 45757
LEMUR-2-HUBBLE-4        
1 64565U 25135AP  26113.59121090  .00001387  00000+0  13877-3 0  9999
2 64565  97.7632 228.1759 0003986 107.4958 252.6698 14.93037584 45726
LEMUR-2-SEJONG-2        
1 64586U 25135BL  26113.94302943  .00003966  00000+0  35662-3 0  9990
2 64586  97.7621 229.3775 0005812 135.4406 224.7284 14.96223970 45839
LEMUR-2-HUBBLE-5        
1 64840U 25135BT  26113.57391673  .00000962  00000+0  95654-4 0  9991
2 64840  97.7649 228.7144 0006395 149.0683 211.0915 14.93960391 45753
LEMUR-2-KARENDARRELL    
1 64841U 25135BU  26113.27362119  .00006423  00000+0  52989-3 0  9993
2 64841  97.7658 229.6078 0009488  59.2024 301.0132 14.99324673 45784
LEMUR-2-LUCILLE-ROSE    
1 65403U 25135BV  26113.58226075  .00005900  00000+0  48705-3 0  9992
2 65403  97.7649 229.9047 0010750 105.8820 254.3588 14.99327339 40450
LEMUR-2-AFFIE-WAUWIE    
1 66295U 25248C   26113.53413941  .00013881  00000+0  55208-3 0  9995
2 66295  45.3990  50.6809 0008500 134.5101 225.6483 15.25261275 26246
LEMUR-2-DEANANDMAEVE    
1 66678U 25276N   26113.38851989  .00004642  00000+0  22488-3 0  9991
2 66678  97.4226 187.7984 0006096 175.6844 184.4444 15.19017499 22093
LEMUR-2-STAS-GORBUK     
1 66686U 25276W   26113.65571355  .00003963  00000+0  19382-3 0  9990
2 66686  97.4260 188.1157 0005678 169.0841 191.0517 15.18770331 22136
